OBJECT_NAME,OBJECT_ID,EPOCH,MEAN_MOTION,ECCENTRICITY,INCLINATION,RA_OF_ASC_NODE,ARG_OF_PERICENTER,MEAN_ANOMALY,EPHEMERIS_TYPE,CLASSIFICATION_TYPE,NORAD_CAT_ID,ELEMENT_SET_NO,REV_AT_EPOCH,BSTAR,MEAN_MOTION_DOT,MEAN_MOTION_DDOT
KAZEOSAT 2,2014-033A,2026-07-09T20:42:35.788608,14.85498346,.0007026,97.5408,29.2763,240.0771,119.9748,0,U,40010,999,65232,.83615E-4,.672E-5,0
HODOYOSHI-4,2014-033B,2026-07-09T19:52:27.276672,14.88181023,.0022238,97.5467,14.5596,228.3126,131.6189,0,U,40011,999,65217,.62084E-4,.522E-5,0
DEIMOS-2,2014-033D,2026-07-09T19:47:37.650048,14.93789414,.0001083,97.5808,64.5160,83.6311,276.5033,0,U,40013,999,64110,.5415E-4,.52E-5,0
HODOYOSHI-3,2014-033F,2026-07-09T16:25:14.080800,14.85430452,.0031315,97.6440,352.8224,280.9517,78.8176,0,U,40015,999,65096,.77582E-4,.621E-5,0
SPOT 7,2014-034A,2026-07-09T20:25:52.015008,14.60977461,.0001542,98.0617,252.7581,97.0727,263.0649,0,U,40053,999,64044,.17546E-4,.41E-6,0
SKYSAT-B,2014-037D,2026-07-09T07:33:51.208992,14.88083155,.00051028,98.3850,150.5437,192.3178,167.7912,0,U,40072,999,64925,.10665521E-3,.919E-5,0
WORLDVIEW-3 (WV-3),2014-048A,2026-07-09T19:21:54.402624,14.85059044,.0000878,97.8558,265.3269,163.1685,196.9559,0,U,40115,999,64526,.65433E-4,.506E-5,0
GAOFEN-2,2014-049A,2026-07-09T21:05:37.294368,14.80924757,.0007917,98.0098,255.0636,150.0054,210.1613,0,U,40118,999,64259,.90026E-4,.643E-5,0
YAOGAN-21,2014-053A,2026-07-09T20:13:45.717600,15.26710243,.0008407,97.1471,230.1082,25.7062,334.4594,0,U,40143,999,65841,.16789E-3,.4344E-4,0
YAOGAN-22,2014-063A,2026-07-09T16:43:23.291040,13.15531467,.0006786,100.7754,342.3465,136.6273,223.5373,0,U,40275,999,56277,.79548E-4,-.17E-6,0
ASNARO,2014-070A,2026-07-09T19:28:16.751136,15.19779472,.0006752,97.3442,266.3170,102.1731,258.0261,0,U,40298,999,64744,.29503E-3,.6251E-4,0
YAOGAN-24,2014-072A,2026-07-09T20:35:13.073280,14.76113781,.0014148,98.1514,328.3889,186.7796,173.3223,0,U,40310,999,62706,.35305E-4,.191E-5,0
CBERS 4,2014-079A,2026-07-09T19:54:46.020384,14.35514709,.0001021,98.3520,246.9498,49.6302,310.4973,0,U,40336,999,60720,-.11793E-4,-.76E-6,0
YAOGAN-26,2014-088A,2026-07-09T21:22:09.975936,15.48289647,.0002653,97.0651,190.5809,9.0305,351.0994,0,U,40362,999,64121,.27227E-3,.14293E-3,0
SMAP,2015-003A,2026-07-09T20:22:39.230688,14.63386298,.0001554,98.1280,197.6229,96.3836,263.7543,0,U,40376,999,61093,.59132E-4,.259E-5,0
KOMPSAT-3A,2015-014A,2026-07-09T20:02:58.888320,15.55197472,.0056711,97.6891,183.8728,94.4501,266.3234,0,U,40536,999,62533,.35255E-3,.25511E-3,0
SENTINEL-2A,2015-028A,2026-07-09T19:15:01.067616,14.30813500,.0001245,98.5675,265.3321,93.9800,266.1525,0,U,40697,999,57696,-.36981E-5,-.53E-6,0
GAOFEN-8,2015-030A,2026-07-09T20:46:30.421632,15.46814586,.0009836,97.6908,25.6104,111.8057,248.4239,0,U,40701,999,61495,.40816E-3,.20439E-3,0
CARBONITE 1 (CBNT-1),2015-032D,2026-07-09T20:14:59.378784,14.83657681,.0013447,97.6523,7.9637,215.6538,144.3780,0,U,40718,999,59270,.16898E-3,.1346E-4,0
YAOGAN-27,2015-040A,2026-07-09T20:02:06.620640,13.16071936,.0008393,100.1169,176.2353,156.9993,203.1497,0,U,40878,999,52064,-.11922E-3,-.88E-6,0
GAOFEN-9 01,2015-047A,2026-07-09T20:52:22.759104,14.82928578,.0028731,97.6271,225.5330,67.1440,293.2804,0,U,40894,999,58355,.87769E-4,.666E-5,0
YAOGAN-28,2015-064A,2026-07-09T20:33:48.111840,15.27715813,.0012027,97.3095,328.6642,109.4678,250.7862,0,U,41026,999,59414,.17669E-3,.4721E-4,0
YAOGAN-29,2015-069A,2026-07-09T20:19:36.244128,14.83104574,.0001155,98.0026,219.5144,21.9129,338.2134,0,U,41038,999,57398,.65523E-4,.48E-5,0
KENT RIDGE 1,2015-077B,2026-07-09T00:50:03.577632,15.23261698,.00082225,14.9792,103.4855,188.2047,171.8141,0,U,41167,999,58443,.86582374E-4,.2877E-4,0
GAOFEN-4,2015-083A,2026-07-09T20:59:55.807872,1.00269886,.0004411,0.4123,83.8847,119.3271,145.2763,0,U,41194,999,3875,0,-.323E-5,0
JASON-3,2016-002A,2026-07-09T20:06:18.607968,12.87628345,.0008242,66.0417,78.2164,271.3942,88.6133,0,U,41240,999,49016,.71594E-4,-.44E-6,0
SENTINEL-3A,2016-011A,2026-07-09T19:09:40.499424,14.26738793,.0001399,98.6239,257.8562,91.8963,268.2377,0,U,41335,999,54128,.34352E-4,.39E-6,0
ZIYUAN 3-02 (ZY 3-02),2016-033A,2026-07-09T21:10:23.497824,15.21401220,.0013508,97.3829,266.2199,203.7965,156.2648,0,U,41556,999,56143,.16882E-3,.3726E-4,0
CARTOSAT-2C,2016-040A,2026-07-09T20:23:31.299648,15.19235223,.0009917,97.4471,250.5144,60.8319,299.3907,0,U,41599,999,55715,.81656E-4,.1653E-4,0
SKYSAT-C1,2016-040C,2026-07-09T00:48:28.316448,15.36676665,.00009402,96.9560,220.5725,8.0156,352.1104,0,U,41601,999,56122,.17620549E-3,.6236E-4,0
LAPAN-A3,2016-040E,2026-07-09T20:07:33.781152,15.33256204,.0008364,97.1498,186.2428,299.6211,60.4199,0,U,41603,999,55828,.76533E-4,.2386E-4,0
