KAZEOSAT 2              
1 40010U 14033A   26190.86291422  .00000672  00000+0  83615-4 0  9999
2 40010  97.5408  29.2763 0007026 240.0771 119.9748 14.85498346652324
HODOYOSHI-4             
1 40011U 14033B   26190.82809348  .00000522  00000+0  62084-4 0  9999
2 40011  97.5467  14.5596 0022238 228.3126 131.6189 14.88181023652173
DEIMOS-2                
1 40013U 14033D   26190.82474132  .00000520  00000+0  54150-4 0  9993
2 40013  97.5808  64.5160 0001083  83.6311 276.5033 14.93789414641101
HODOYOSHI-3             
1 40015U 14033F   26190.68419075  .00000621  00000+0  77582-4 0  9990
2 40015  97.6440 352.8224 0031315 280.9517  78.8176 14.85430452650962
SPOT 7                  
1 40053U 14034A   26190.85129647  .00000041  00000+0  17546-4 0  9995
2 40053  98.0617 252.7581 0001542  97.0727 263.0649 14.60977461640442
SKYSAT-B                
1 40072U 14037D   26190.31517603  .00000919  00000+0  10666-3 0  9992
2 40072  98.3850 150.5437 0005102 192.3178 167.7912 14.88083155649254
WORLDVIEW-3 (WV-3)      
1 40115U 14048A   26190.80687966  .00000506  00000+0  65433-4 0  9991
2 40115  97.8558 265.3269 0000878 163.1685 196.9559 14.85059044645268
GAOFEN-2                
1 40118U 14049A   26190.87890387  .00000643  00000+0  90026-4 0  9993
2 40118  98.0098 255.0636 0007917 150.0054 210.1613 14.80924757642593
YAOGAN-21               
1 40143U 14053A   26190.84289025  .00004344  00000+0  16789-3 0  9999
2 40143  97.1471 230.1082 0008407  25.7062 334.4594 15.26710243658417
YAOGAN-22               
1 40275U 14063A   26190.69679735 -.00000017  00000+0  79548-4 0  9997
2 40275 100.7754 342.3465 0006786 136.6273 223.5373 13.15531467562774
ASNARO                  
1 40298U 14070A   26190.81130499  .00006251  00000+0  29503-3 0  9993
2 40298  97.3442 266.3170 0006752 102.1731 258.0261 15.19779472647445
YAOGAN-24               
1 40310U 14072A   26190.85779020  .00000191  00000+0  35305-4 0  9998
2 40310  98.1514 328.3889 0014148 186.7796 173.3223 14.76113781627062
CBERS 4                 
1 40336U 14079A   26190.82969931 -.00000076  00000+0 -11793-4 0  9991
2 40336  98.3520 246.9498 0001021  49.6302 310.4973 14.35514709607206
YAOGAN-26               
1 40362U 14088A   26190.89039324  .00014293  00000+0  27227-3 0  9993
2 40362  97.0651 190.5809 0002653   9.0305 351.0994 15.48289647641219
SMAP                    
1 40376U 15003A   26190.84906517  .00000259  00000+0  59132-4 0  9996
2 40376  98.1280 197.6229 0001554  96.3836 263.7543 14.63386298610935
KOMPSAT-3A              
1 40536U 15014A   26190.83540380  .00025511  00000+0  35255-3 0  9994
2 40536  97.6891 183.8728 0056711  94.4501 266.3234 15.55197472625331
SENTINEL-2A             
1 40697U 15028A   26190.80209569 -.00000053  00000+0 -36981-5 0  9990
2 40697  98.5675 265.3321 0001245  93.9800 266.1525 14.30813500576966
GAOFEN-8                
1 40701U 15030A   26190.86562988  .00020439  00000+0  40816-3 0  9990
2 40701  97.6908  25.6104 0009836 111.8057 248.4239 15.46814586614955
CARBONITE 1 (CBNT-1)    
1 40718U 15032D   26190.84374281  .00001346  00000+0  16898-3 0  9994
2 40718  97.6523   7.9637 0013447 215.6538 144.3780 14.83657681592704
YAOGAN-27               
1 40878U 15040A   26190.83479885 -.00000088  00000+0 -11922-3 0  9992
2 40878 100.1169 176.2353 0008393 156.9993 203.1497 13.16071936520649
GAOFEN-9 01             
1 40894U 15047A   26190.86970786  .00000666  00000+0  87769-4 0  9999
2 40894  97.6271 225.5330 0028731  67.1440 293.2804 14.82928578583550
YAOGAN-28               
1 41026U 15064A   26190.85680685  .00004721  00000+0  17669-3 0  9998
2 41026  97.3095 328.6642 0012027 109.4678 250.7862 15.27715813594149
YAOGAN-29               
1 41038U 15069A   26190.84694727  .00000480  00000+0  65523-4 0  9998
2 41038  98.0026 219.5144 0001155  21.9129 338.2134 14.83104574573988
KENT RIDGE 1            
1 41167U 15077B   26190.03476363  .00002877  00000+0  86582-4 0  9995
2 41167  14.9792 103.4855 0008222 188.2047 171.8141 15.23261698584433
GAOFEN-4                
1 41194U 15083A   26190.87495148 -.00000323  00000+0  00000+0 0  9997
2 41194   0.4123  83.8847 0004411 119.3271 145.2763  1.00269886 38754
JASON-3                 
1 41240U 16002A   26190.83771537 -.00000044  00000+0  71594-4 0  9997
2 41240  66.0417  78.2164 0008242 271.3942  88.6133 12.87628345490164
SENTINEL-3A             
1 41335U 16011A   26190.79838541  .00000039  00000+0  34352-4 0  9990
2 41335  98.6239 257.8562 0001399  91.8963 268.2377 14.26738793541283
ZIYUAN 3-02 (ZY 3-02)   
1 41556U 16033A   26190.88221641  .00003726  00000+0  16882-3 0  9999
2 41556  97.3829 266.2199 0013508 203.7965 156.2648 15.21401220561434
CARTOSAT-2C             
1 41599U 16040A   26190.84966782  .00001653  00000+0  81656-4 0  9991
2 41599  97.4471 250.5144 0009917  60.8319 299.3907 15.19235223557151
SKYSAT-C1               
1 41601U 16040C   26190.03366107  .00006236  00000+0  17621-3 0  9993
2 41601  96.9560 220.5725 0000940   8.0156 352.1104 15.36676665561228
LAPAN-A3                
1 41603U 16040E   26190.83858543  .00002386  00000+0  76533-4 0  9993
2 41603  97.1498 186.2428 0008364 299.6211  60.4199 15.33256204558284
